[{"OBJECT_NAME":"STARLINK-31028","OBJECT_ID":"2023-191J","EPOCH":"2026-03-09T11:30:34.665696","MEAN_MOTION":15.26762907,"ECCENTRICITY":0.00012112,"INCLINATION":43.0013,"RA_OF_ASC_NODE":104.232,"ARG_OF_PERICENTER":272.5081,"MEAN_ANOMALY":87.5632,"EPHEMERIS_TYPE":0,"CLASSIFICATION_TYPE":"U","NORAD_CAT_ID":58516,"ELEMENT_SET_NO":999,"REV_AT_EPOCH":12544,"BSTAR":0.00013746768,"MEAN_MOTION_DOT":3.432e-5,"MEAN_MOTION_DDOT":0},{"OBJECT_NAME":"COSMOS 886 DEB","OBJECT_ID":"1976-126M","EPOCH":"2026-03-09T22:12:52.532928","MEAN_MOTION":13.82653067,"ECCENTRICITY":0.06461963,"INCLINATION":65.7873,"RA_OF_ASC_NODE":333.1273,"ARG_OF_PERICENTER":140.6509,"MEAN_ANOMALY":224.3408,"EPHEMERIS_TYPE":0,"CLASSIFICATION_TYPE":"U","NORAD_CAT_ID":9655,"ELEMENT_SET_NO":999,"REV_AT_EPOCH":37570,"BSTAR":0.00072487394,"MEAN_MOTION_DOT":4.06e-5,"MEAN_MOTION_DDOT":0}]
